CORVUS BC4              
1 43767U 18099K   26068.65923737  .00005714  00000+0  33980-3 0  9990
2 43767  97.4206 114.5457 0008046 356.5821   3.5354 15.11615710397368
STARLINK-4687           
1 53784U 22111M   26068.87525010  .00000174  00000+0  29043-4 0  9997
2 53784  53.2170 273.3260 0001240  81.8434 278.2699 15.08832094193720
